{"fetched_at":"2026-03-29T16:36:15Z","count":15609,"tles":[{"name":"STARLINK-5553","line1":"1 56333U 23058S   26087.89252829  .00000338  00000+0  27627-4 0  9997","line2":"2 56333  97.6037  90.1104 0001821  90.4442 269.6993 15.05652584161085","category":"Starlink"}]}